$$SOE
2459580.500000000, A.D. 2022-Jan-01 00:00:00.0000, 1.295920943567263E+08, 2.171345844018281E+08, -1.270896210405299E+07,
2459587.500000000, A.D. 2022-Jan-08 00:00:00.0000, 1.175909027034712E+08, 2.230467751131290E+08, -7.134051491900638E+06,
2459594.500000000, A.D. 2022-Jan-15 00:00:00.0000, 1.052342076104229E+08, 2.282844854244792E+08, -1.537599568083912E+06,
2459601.500000000, A.D. 2022-Jan-22 00:00:00.0000, 9.255606094381045E+07, 2.328247023044332E+08, 4.063521322812155E+06,
2459608.500000000, A.D. 2022-Jan-29 00:00:00.0000, 7.959249260012585E+07, 2.366467628082781E+08, 9.652081912843212E+06,
2459615.500000000, A.D. 2022-Feb-05 00:00:00.0000, 6.638135567040818E+07, 2.397325599211879E+08, 1.521058923736860E+07,
2459622.500000000, A.D. 2022-Feb-12 00:00:00.0000, 5.296214814566975E+07, 2.420667319149333E+08, 2.072138674454460E+07,
2459629.500000000, A.D. 2022-Feb-19 00:00:00.0000, 3.937581114869512E+07, 2.436368336856577E+08, 2.616676044918241E+07,
2459636.500000000, A.D. 2022-Feb-26 00:00:00.0000, 2.566450430732658E+07, 2.444334856251082E+08, 3.152904982715502E+07,
2459643.500000000, A.D. 2022-Mar-05 00:00:00.0000, 1.187136098096189E+07, 2.444504960132799E+08, 3.679076183537175E+07,
2459650.500000000, A.D. 2022-Mar-12 00:00:00.0000, -1.959773299116149E+06, 2.436849539159199E+08, 4.193468633445266E+07,
2459657.500000000, A.D. 2022-Mar-19 00:00:00.0000, -1.578461545148511E+07, 2.421372902205070E+08, 4.694401111139831E+07,
2459664.500000000, A.D. 2022-Mar-26 00:00:00.0000, -2.955872843296284E+07, 2.398113050654661E+08, 5.180243465208925E+07,
2459671.500000000, A.D. 2022-Apr-02 00:00:00.0000, -4.323780934734576E+07, 2.367141605985371E+08, 5.649427481234600E+07,
2459678.500000000, A.D. 2022-Apr-09 00:00:00.0000, -5.677797724956658E+07, 2.328563388400211E+08, 6.100457158739273E+07,
2459685.500000000, A.D. 2022-Apr-16 00:00:00.0000, -7.013605570385522E+07, 2.282515658743922E+08, 6.531918234711891E+07,
2459692.500000000, A.D. 2022-Apr-23 00:00:00.0000, -8.326984689230226E+07, 2.229167048181383E+08, 6.942486826790559E+07,
2459699.500000000, A.D. 2022-Apr-30 00:00:00.0000, -9.613839489837925E+07, 2.168716174195307E+08, 7.330937069243665E+07,
2459706.500000000, A.D. 2022-May-07 00:00:00.0000, -1.087022312279938E+08, 2.101389950329156E+08, 7.696147595271327E+07,
2459713.500000000, A.D. 2022-May-14 00:00:00.0000, -1.209235978315259E+08, 2.027441653069550E+08, 8.037106804916450E+07,
2459720.500000000, A.D. 2022-May-21 00:00:00.0000, -1.327666468563435E+08, 1.947148791256167E+08, 8.352916901185992E+07,
2459727.500000000, A.D. 2022-May-28 00:00:00.0000, -1.441976154192069E+08, 1.860810809026318E+08, 8.642796676401369E+07,
2459734.500000000, A.D. 2022-Jun-04 00:00:00.0000, -1.551849736056198E+08, 1.768746661413896E+08, 8.906083057127953E+07,
2459741.500000000, A.D. 2022-Jun-11 00:00:00.0000, -1.656995447063439E+08, 1.671292305309614E+08, 9.142231446213004E+07,
2459748.500000000, A.D. 2022-Jun-18 00:00:00.0000, -1.757145974537376E+08, 1.568798147736683E+08, 9.350814924787766E+07,
2459755.500000000, A.D. 2022-Jun-25 00:00:00.0000, -1.852059106334143E+08, 1.461626490918664E+08, 9.531522396425268E+07,
2459762.500000000, A.D. 2022-Jul-02 00:00:00.0000, -1.941518108843760E+08, 1.350149010317310E+08, 9.684155770065710E+07,
2459769.500000000, A.D. 2022-Jul-09 00:00:00.0000, -2.025331847114556E+08, 1.234744300511332E+08, 9.808626289416812E+07,
2459776.500000000, A.D. 2022-Jul-16 00:00:00.0000, -2.103334665635182E+08, 1.115795528555746E+08, 9.904950135378718E+07,
2459783.500000000, A.D. 2022-Jul-23 00:00:00.0000, -2.175386072765822E+08, 9.936882198031756E+07, 9.973243443371235E+07,
2459790.500000000, A.D. 2022-Jul-30 00:00:00.0000, -2.241370251111507E+08, 8.688081622111696E+07, 1.001371682913697E+08,
2459797.500000000, A.D. 2022-Aug-06 00:00:00.0000, -2.301195382011722E+08, 7.415394505148958E+07, 1.002666951264549E+08,
2459804.500000000, A.D. 2022-Aug-13 00:00:00.0000, -2.354792816984056E+08, 6.122627079656880E+07, 1.001248318037320E+08,
2459811.500000000, A.D. 2022-Aug-20 00:00:00.0000, -2.402116136515298E+08, 4.813534865778016E+07, 9.971615700637919E+07,
2459818.500000000, A.D. 2022-Aug-27 00:00:00.0000, -2.443140119422977E+08, 3.491808409863973E+07, 9.904594781139216E+07,
2459825.500000000, A.D. 2022-Sep-03 00:00:00.0000, -2.477859642860024E+08, 2.161060738126845E+07, 9.812011649947591E+07,
2459832.500000000, A.D. 2022-Sep-10 00:00:00.0000, -2.506288533036741E+08, 8.248164886467557E+06, 9.694514832708795E+07,
2459839.500000000, A.D. 2022-Sep-17 00:00:00.0000, -2.528458385541722E+08, -5.134973411454879E+06, 9.552804088459441E+07,
2459846.500000000, A.D. 2022-Sep-24 00:00:00.0000, -2.544417371866639E+08, -1.850559117803543E+07, 9.387624555208090E+07,
2459853.500000000, A.D. 2022-Oct-01 00:00:00.0000, -2.554229044888913E+08, -3.183158863156920E+07, 9.199761144725186E+07,
2459860.500000000, A.D. 2022-Oct-08 00:00:00.0000, -2.557971152292910E+08, -4.508203165594032E+07, 8.990033218813647E+07,
2459867.500000000, A.D. 2022-Oct-15 00:00:00.0000, -2.555734478187418E+08, -5.822718701645204E+07, 8.759289587355003E+07,
2459874.500000000, A.D. 2022-Oct-22 00:00:00.0000, -2.547621743661495E+08, -7.123854650516829E+07, 8.508403847811233E+07,
2459881.500000000, A.D. 2022-Oct-29 00:00:00.0000, -2.533746548474800E+08, -8.408884377188748E+07, 8.238270029539388E+07,
2459888.500000000, A.D. 2022-Nov-05 00:00:00.0000, -2.514232338529823E+08, -9.675206224563639E+07, 7.949798549284516E+07,
2459895.500000000, A.D. 2022-Nov-12 00:00:00.0000, -2.489211422994606E+08, -1.092034339771232E+08, 7.643912505114168E+07,
2459902.500000000, A.D. 2022-Nov-19 00:00:00.0000, -2.458824051217650E+08, -1.214194313959643E+08, 7.321544302037793E+07,
2459909.500000000, A.D. 2022-Nov-26 00:00:00.0000, -2.423217548656186E+08, -1.333777533557505E+08, 6.983632594340251E+07,
2459916.500000000, A.D. 2022-Dec-03 00:00:00.0000, -2.382545510980484E+08, -1.450573063820821E+08, 6.631119530494889E+07,
2459923.500000000, A.D. 2022-Dec-10 00:00:00.0000, -2.336967055803241E+08, -1.564381819374581E+08, 6.264948285385612E+07,
2459930.500000000, A.D. 2022-Dec-17 00:00:00.0000, -2.286646130961352E+08, -1.675016304920700E+08, 5.886060862957038E+07,
2459937.500000000, A.D. 2022-Dec-24 00:00:00.0000, -2.231750876880079E+08, -1.782300331607116E+08, 5.495396150615334E+07,
2459944.500000000, A.D. 2022-Dec-31 00:00:00.0000, -2.172453037644113E+08, -1.886068714222469E+08, 5.093888205544980E+07,
2459951.500000000, A.D. 2023-Jan-07 00:00:00.0000, -2.108927417417441E+08, -1.986166945139237E+08, 4.682464762179197E+07,
2459958.500000000, A.D. 2023-Jan-14 00:00:00.0000, -2.041351399487669E+08, -2.082450844926543E+08, 4.262045965544781E+07,
2459965.500000000, A.D. 2023-Jan-21 00:00:00.0000, -1.969904531813934E+08, -2.174786225671619E+08, 3.833543293501525E+07,
2459972.500000000, A.D. 2023-Jan-28 00:00:00.0000, -1.894768139769734E+08, -2.263048572759020E+08, 3.397858616369215E+07,
2459979.500000000, A.D. 2023-Feb-04 00:00:00.0000, -1.816124965505753E+08, -2.347122718085078E+08, 2.955883404981244E+07,
2459986.500000000, A.D. 2023-Feb-11 00:00:00.0000, -1.734158849188647E+08, -2.426902509382020E+08, 2.508498087024178E+07,
2459993.500000000, A.D. 2023-Feb-18 00:00:00.0000, -1.649054450040396E+08, -2.502290486177643E+08, 2.056571531183010E+07,
2460000.500000000, A.D. 2023-Feb-25 00:00:00.0000, -1.560997001863922E+08, -2.573197565953111E+08, 1.600960641865963E+07,
2460007.500000000, A.D. 2023-Mar-04 00:00:00.0000, -1.470172099439562E+08, -2.639542741981201E+08, 1.142510051215850E+07,
2460014.500000000, A.D. 2023-Mar-11 00:00:00.0000, -1.376765513050712E+08, -2.701252794230591E+08, 6.820518965701744E+06,
2460021.500000000, A.D. 2023-Mar-18 00:00:00.0000, -1.280963028324112E+08, -2.758262014934091E+08, 2.204056717238888E+06,
2460028.500000000, A.D. 2023-Mar-25 00:00:00.0000, -1.182950307097882E+08, -2.810511950154699E+08, -2.416218603400916E+06,
2460035.500000000, A.D. 2023-Apr-01 00:00:00.0000, -1.082912762920168E+08, -2.857951154086656E+08, -7.032367032764807E+06,
2460042.500000000, A.D. 2023-Apr-08 00:00:00.0000, -9.810354552918002E+07, -2.900534944342335E+08, -1.163657604727554E+07,
2460049.500000000, A.D. 2023-Apr-15 00:00:00.0000, -8.775030240799725E+07, -2.938225169631030E+08, -1.622115970749711E+07,
2460056.500000000, A.D. 2023-Apr-22 00:00:00.0000, -7.724996441629273E+07, -2.970990020602030E+08, -2.077855766189839E+07,
2460063.500000000, A.D. 2023-Apr-29 00:00:00.0000, -6.662089712337933E+07, -2.998803861529062E+08, -2.530133414487809E+07,
2460070.500000000, A.D. 2023-May-06 00:00:00.0000, -5.588140947615086E+07, -3.021647065142899E+08, -2.978217672529872E+07,
2460077.500000000, A.D. 2023-May-13 00:00:00.0000, -4.504975063601382E+07, -3.039505859577691E+08, -3.421389484807312E+07,
2460084.500000000, A.D. 2023-May-20 00:00:00.0000, -3.414410797950404E+07, -3.052372192309949E+08, -3.858941828583173E+07,
2460091.500000000, A.D. 2023-May-27 00:00:00.0000, -2.318260593383330E+07, -3.060243611293626E+08, -4.290179557278471E+07,
2460098.500000000, A.D. 2023-Jun-03 00:00:00.0000, -1.218330545987581E+07, -3.063123162902726E+08, -4.714419247297511E+07,
2460105.500000000, A.D. 2023-Jun-10 00:00:00.0000, -1.164204034871503E+06, -3.061019306694852E+08, -5.130989053316292E+07,
2460112.500000000, A.D. 2023-Jun-17 00:00:00.0000, 9.856764069478245E+06, -3.053945847470753E+08, -5.539228577790497E+07,
2460119.500000000, A.D. 2023-Jun-24 00:00:00.0000, 2.086172764209747E+07, -3.041921883903762E+08, -5.938488761224751E+07,
2460126.500000000, A.D. 2023-Jul-01 00:00:00.0000, 3.183287888088921E+07, -3.024971765247562E+08, -6.328131792407814E+07,
2460133.500000000, A.D. 2023-Jul-08 00:00:00.0000, 4.275247266754732E+07, -3.003125047679337E+08, -6.707531019922441E+07,
2460140.500000000, A.D. 2023-Jul-15 00:00:00.0000, 5.360282359889611E+07, -2.976416478349156E+08, -7.076070879628597E+07,
2460147.500000000, A.D. 2023-Jul-22 00:00:00.0000, 6.436630440175042E+07, -2.944886017266837E+08, -7.433146882206787E+07,
$$EOE